{
  "type": "FeatureCollection",
  "features": [
    {
      "type": "Feature",
      "properties": {
        "norad_id": 66933,
        "name": "STARLINK-36157",
        "group": "last-30-days",
        "lat": -12.05938252461032,
        "lon": 172.4811113364527,
        "alt_km": 400.01685822274885,
        "timestamp": "2025-12-26T05:31:11.218839+00:00",
        "meta_object_name": "STARLINK-36157",
        "meta_object_id": "2025-286J",
        "meta_epoch": "2025-12-25T22:00:01.999584",
        "meta_mean_motion": 15.57982792,
        "meta_eccentricity": 0.00016082,
        "meta_inclination": 53.1597,
        "meta_ra_of_asc_node": 344.7807,
        "meta_arg_of_pericenter": 98.7681,
        "meta_mean_anomaly": 138.797,
        "meta_ephemeris_type": 0,
        "meta_classification_type": "U",
        "meta_norad_cat_id": 66933,
        "meta_element_set_no": 999,
        "meta_rev_at_epoch": 410,
        "meta_bstar": -0.029356957,
        "meta_mean_motion_dot": -0.01968666,
        "meta_mean_motion_ddot": 0,
        "tle_line1": "1 66933U 25286J   25359.91668981 -.01968666  00000+0 -29357-1 0  9992",
        "tle_line2": "2 66933  53.1597 344.7807 0001608  98.7681 138.7970 15.57982792  4101"
      },
      "geometry": {
        "type": "Point",
        "coordinates": [
          172.4811113364527,
          -12.05938252461032
        ]
      }
    },
    {
      "type": "Feature",
      "properties": {
        "norad_id": 66934,
        "name": "STARLINK-36153",
        "group": "last-30-days",
        "lat": -13.57007809599773,
        "lon": 173.68708912647807,
        "alt_km": 400.17438609324654,
        "timestamp": "2025-12-26T05:31:11.218849+00:00",
        "meta_object_name": "STARLINK-36153",
        "meta_object_id": "2025-286K",
        "meta_epoch": "2025-12-25T22:00:01.999584",
        "meta_mean_motion": 15.57983037,
        "meta_eccentricity": 0.00016065,
        "meta_inclination": 53.1596,
        "meta_ra_of_asc_node": 344.7776,
        "meta_arg_of_pericenter": 101.2367,
        "meta_mean_anomaly": 138.2465,
        "meta_ephemeris_type": 0,
        "meta_classification_type": "U",
        "meta_norad_cat_id": 66934,
        "meta_element_set_no": 999,
        "meta_rev_at_epoch": 410,
        "meta_bstar": -0.029411099,
        "meta_mean_motion_dot": -0.01971866,
        "meta_mean_motion_ddot": 0,
        "tle_line1": "1 66934U 25286K   25359.91668981 -.01971866  00000+0 -29411-1 0  9990",
        "tle_line2": "2 66934  53.1596 344.7776 0001606 101.2367 138.2465 15.57983037  4102"
      },
      "geometry": {
        "type": "Point",
        "coordinates": [
          173.68708912647807,
          -13.57007809599773
        ]
      }
    },
    {
      "type": "Feature",
      "properties": {
        "norad_id": 66935,
        "name": "STARLINK-36127",
        "group": "last-30-days",
        "lat": -15.073912252763234,
        "lon": 174.90549609543086,
        "alt_km": 400.4277659504305,
        "timestamp": "2025-12-26T05:31:11.218859+00:00",
        "meta_object_name": "STARLINK-36127",
        "meta_object_id": "2025-286L",
        "meta_epoch": "2025-12-25T22:00:01.999584",
        "meta_mean_motion": 15.57981992,
        "meta_eccentricity": 0.0001545,
        "meta_inclination": 53.1596,
        "meta_ra_of_asc_node": 344.7723,
        "meta_arg_of_pericenter": 96.1544,
        "meta_mean_anomaly": 145.2442,
        "meta_ephemeris_type": 0,
        "meta_classification_type": "U",
        "meta_norad_cat_id": 66935,
        "meta_element_set_no": 999,
        "meta_rev_at_epoch": 410,
        "meta_bstar": -0.029310627,
        "meta_mean_motion_dot": -0.01965842,
        "meta_mean_motion_ddot": 0,
        "tle_line1": "1 66935U 25286L   25359.91668981 -.01965842  00000+0 -29311-1 0  9997",
        "tle_line2": "2 66935  53.1596 344.7723 0001545  96.1544 145.2442 15.57981992  4107"
      },
      "geometry": {
        "type": "Point",
        "coordinates": [
          174.90549609543086,
          -15.073912252763234
        ]
      }
    },
    {
      "type": "Feature",
      "properties": {
        "norad_id": 66936,
        "name": "STARLINK-36160",
        "group": "last-30-days",
        "lat": -16.572125439575085,
        "lon": 176.14414005879803,
        "alt_km": 400.5587607119269,
        "timestamp": "2025-12-26T05:31:11.218873+00:00",
        "meta_object_name": "STARLINK-36160",
        "meta_object_id": "2025-286M",
        "meta_epoch": "2025-12-25T22:00:01.999584",
        "meta_mean_motion": 15.5797992,
        "meta_eccentricity": 0.00016508,
        "meta_inclination": 53.1592,
        "meta_ra_of_asc_node": 344.7688,
        "meta_arg_of_pericenter": 99.9563,
        "meta_mean_anomaly": 143.3596,
        "meta_ephemeris_type": 0,
        "meta_classification_type": "U",
        "meta_norad_cat_id": 66936,
        "meta_element_set_no": 999,
        "meta_rev_at_epoch": 410,
        "meta_bstar": -0.029271851,
        "meta_mean_motion_dot": -0.01963499,
        "meta_mean_motion_ddot": 0,
        "tle_line1": "1 66936U 25286M   25359.91668981 -.01963499  00000+0 -29272-1 0  9990",
        "tle_line2": "2 66936  53.1592 344.7688 0001650  99.9563 143.3596 15.57979920  4100"
      },
      "geometry": {
        "type": "Point",
        "coordinates": [
          176.14414005879803,
          -16.572125439575085
        ]
      }
    },
    {
      "type": "Feature",
      "properties": {
        "norad_id": 66937,
        "name": "STARLINK-36165",
        "group": "last-30-days",
        "lat": -18.06266427030184,
        "lon": 177.40118523275905,
        "alt_km": 400.66895237004155,
        "timestamp": "2025-12-26T05:31:11.218885+00:00",
        "meta_object_name": "STARLINK-36165",
        "meta_object_id": "2025-286N",
        "meta_epoch": "2025-12-25T22:00:01.999584",
        "meta_mean_motion": 15.57979111,
        "meta_eccentricity": 0.00016254,
        "meta_inclination": 53.1588,
        "meta_ra_of_asc_node": 344.7644,
        "meta_arg_of_pericenter": 103.7289,
        "meta_mean_anomaly": 141.5053,
        "meta_ephemeris_type": 0,
        "meta_classification_type": "U",
        "meta_norad_cat_id": 66937,
        "meta_element_set_no": 999,
        "meta_rev_at_epoch": 410,
        "meta_bstar": -0.029270624,
        "meta_mean_motion_dot": -0.01963356,
        "meta_mean_motion_ddot": 0,
        "tle_line1": "1 66937U 25286N   25359.91668981 -.01963356  00000+0 -29271-1 0  9992",
        "tle_line2": "2 66937  53.1588 344.7644 0001625 103.7289 141.5053 15.57979111  4109"
      },
      "geometry": {
        "type": "Point",
        "coordinates": [
          177.40118523275905,
          -18.06266427030184
        ]
      }
    },
    {
      "type": "Feature",
      "properties": {
        "norad_id": 66938,
        "name": "STARLINK-36155",
        "group": "last-30-days",
        "lat": -19.543178849301828,
        "lon": 178.6780086143886,
        "alt_km": 400.9202454190736,
        "timestamp": "2025-12-26T05:31:11.218895+00:00",
        "meta_object_name": "STARLINK-36155",
        "meta_object_id": "2025-286P",
        "meta_epoch": "2025-12-25T22:00:01.999584",
        "meta_mean_motion": 15.57983829,
        "meta_eccentricity": 0.00014632,
        "meta_inclination": 53.1595,
        "meta_ra_of_asc_node": 344.7603,
        "meta_arg_of_pericenter": 97.2759,
        "meta_mean_anomaly": 149.8738,
        "meta_ephemeris_type": 0,
        "meta_classification_type": "U",
        "meta_norad_cat_id": 66938,
        "meta_element_set_no": 999,
        "meta_rev_at_epoch": 410,
        "meta_bstar": -0.02940123,
        "meta_mean_motion_dot": -0.01971236,
        "meta_mean_motion_ddot": 0,
        "tle_line1": "1 66938U 25286P   25359.91668981 -.01971236  00000+0 -29401-1 0  9994",
        "tle_line2": "2 66938  53.1595 344.7603 0001463  97.2759 149.8738 15.57983829  4104"
      },
      "geometry": {
        "type": "Point",
        "coordinates": [
          178.6780086143886,
          -19.543178849301828
        ]
      }
    },
    {
      "type": "Feature",
      "properties": {
        "norad_id": 66939,
        "name": "STARLINK-36154",
        "group": "last-30-days",
        "lat": -22.478920414954622,
        "lon": -178.69126956614218,
        "alt_km": 401.1388079173412,
        "timestamp": "2025-12-26T05:31:11.218905+00:00",
        "meta_object_name": "STARLINK-36154",
        "meta_object_id": "2025-286Q",
        "meta_epoch": "2025-12-25T22:00:01.999584",
        "meta_mean_motion": 15.57980679,
        "meta_eccentricity": 0.0001644,
        "meta_inclination": 53.1591,
        "meta_ra_of_asc_node": 344.752,
        "meta_arg_of_pericenter": 104.8256,
        "meta_mean_anomaly": 146.1566,
        "meta_ephemeris_type": 0,
        "meta_classification_type": "U",
        "meta_norad_cat_id": 66939,
        "meta_element_set_no": 999,
        "meta_rev_at_epoch": 410,
        "meta_bstar": -0.029265799,
        "meta_mean_motion_dot": -0.01963188,
        "meta_mean_motion_ddot": 0,
        "tle_line1": "1 66939U 25286Q   25359.91668981 -.01963188  00000+0 -29266-1 0  9991",
        "tle_line2": "2 66939  53.1591 344.7520 0001644 104.8256 146.1566 15.57980679  4106"
      },
      "geometry": {
        "type": "Point",
        "coordinates": [
          -178.69126956614218,
          -22.478920414954622
        ]
      }
    }
  ]
}